start=new Date('2022-05-26T00:00:00.000Z').valueOf();
sats=[{"GP_ID":"204502893","TLE_LINE1":"1 48395U 21038AU  22145.31403671  .00004586  00000-0  34834-3 0  9990","CENTER_NAME":"EARTH","NORAD_CAT_ID":"48395","TIME_SYSTEM":"UTC","EPOCH":"2022-05-25T07:32:12.771744","FILE":"3463908","EPHEMERIS_TYPE":"0","RCS_SIZE":"LARGE","APOAPSIS":"555.878","REV_AT_EPOCH":"5986","MEAN_ELEMENT_THEORY":"SGP4","REF_FRAME":"TEME","MEAN_MOTION_DDOT":"0.0000000000000","CLASSIFICATION_TYPE":"U","OBJECT_TYPE":"PAYLOAD","INCLINATION":"53.0563","PERIAPSIS":"553.598","OBJECT_NAME":"STARLINK-2574","DECAY_DATE":null,"ELEMENT_SET_NO":"999","TLE_LINE2":"2 48395  53.0563  76.6194 0001644  58.7140 301.4009 15.03948257 59865","LAUNCH_DATE":"2021-05-04","ARG_OF_PERICENTER":"58.7140","ECCENTRICITY":"0.00016440","MEAN_MOTION_DOT":"0.00004586","MEAN_MOTION":"15.03948257","SITE":"AFETR","OBJECT_ID":"2021-038AU","SEMIMAJOR_AXIS":"6932.873","COUNTRY_CODE":"US","BSTAR":"0.00034834000000","MEAN_ANOMALY":"301.4009","PERIOD":"95.748","RA_OF_ASC_NODE":"76.6194"},{"LAUNCH_DATE":"2021-05-04","TLE_LINE2":"2 48396  53.0560  76.7054 0001953  45.4418 314.6730 15.06384047 59853","MEAN_MOTION":"15.06384047","MEAN_MOTION_DOT":"0.00001297","ARG_OF_PERICENTER":"45.4418","ECCENTRICITY":"0.00019530","PERIAPSIS":"545.910","INCLINATION":"53.0560","OBJECT_TYPE":"PAYLOAD","ELEMENT_SET_NO":"999","DECAY_DATE":null,"OBJECT_NAME":"STARLINK-2575","BSTAR":"0.00010598000000","COUNTRY_CODE":"US","PERIOD":"95.593","MEAN_ANOMALY":"314.6730","RA_OF_ASC_NODE":"76.7054","SEMIMAJOR_AXIS":"6925.397","SITE":"AFETR","OBJECT_ID":"2021-038AV","NORAD_CAT_ID":"48396","TIME_SYSTEM":"UTC","GP_ID":"204503143","CENTER_NAME":"EARTH","TLE_LINE1":"1 48396U 21038AV  22145.23159318  .00001297  00000-0  10598-3 0  9995","REV_AT_EPOCH":"5985","APOAPSIS":"548.615","RCS_SIZE":"LARGE","EPHEMERIS_TYPE":"0","CLASSIFICATION_TYPE":"U","MEAN_MOTION_DDOT":"0.0000000000000","REF_FRAME":"TEME","MEAN_ELEMENT_THEORY":"SGP4","EPOCH":"2022-05-25T05:33:29.650752","FILE":"3463908"},{"OBJECT_TYPE":"PAYLOAD","INCLINATION":"53.0569","PERIAPSIS":"546.014","OBJECT_NAME":"STARLINK-2590","DECAY_DATE":null,"ELEMENT_SET_NO":"999","LAUNCH_DATE":"2021-05-04","TLE_LINE2":"2 48397  53.0569  76.7165 0001761  62.9879 297.1290 15.06393467 59850","ECCENTRICITY":"0.00017610","ARG_OF_PERICENTER":"62.9879","MEAN_MOTION_DOT":"-0.00000132","MEAN_MOTION":"15.06393467","SITE":"AFETR","OBJECT_ID":"2021-038AW","SEMIMAJOR_AXIS":"6925.369","COUNTRY_CODE":"US","BSTAR":"0.00001002500000","PERIOD":"95.593","RA_OF_ASC_NODE":"76.7165","MEAN_ANOMALY":"297.1290","GP_ID":"204501892","TLE_LINE1":"1 48397U 21038AW  22145.22791212 -.00000132  00000-0  10025-4 0  9994","CENTER_NAME":"EARTH","NORAD_CAT_ID":"48397","TIME_SYSTEM":"UTC","EPOCH":"2022-05-25T05:28:11.607168","FILE":"3463908","EPHEMERIS_TYPE":"0","APOAPSIS":"548.453","RCS_SIZE":"LARGE","REV_AT_EPOCH":"5985","MEAN_ELEMENT_THEORY":"SGP4","REF_FRAME":"TEME","MEAN_MOTION_DDOT":"0.0000000000000","CLASSIFICATION_TYPE":"U"},{"EPOCH":"2022-05-25T06:58:25.781952","FILE":"3463908","EPHEMERIS_TYPE":"0","RCS_SIZE":"LARGE","APOAPSIS":"548.490","REV_AT_EPOCH":"5986","MEAN_ELEMENT_THEORY":"SGP4","REF_FRAME":"TEME","MEAN_MOTION_DDOT":"0.0000000000000","CLASSIFICATION_TYPE":"U","GP_ID":"204502142","TLE_LINE1":"1 48398U 21038AX  22145.29057618  .00008407  00000-0  58328-3 0  9996","CENTER_NAME":"EARTH","NORAD_CAT_ID":"48398","TIME_SYSTEM":"UTC","SITE":"AFETR","OBJECT_ID":"2021-038AX","SEMIMAJOR_AXIS":"6925.486","COUNTRY_CODE":"US","BSTAR":"0.00058328000000","MEAN_ANOMALY":"300.2744","PERIOD":"95.595","RA_OF_ASC_NODE":"76.4309","OBJECT_TYPE":"PAYLOAD","INCLINATION":"53.0555","PERIAPSIS":"546.212","OBJECT_NAME":"STARLINK-2588","DECAY_DATE":null,"ELEMENT_SET_NO":"999","TLE_LINE2":"2 48398  53.0555  76.4309 0001645  59.8408 300.2744 15.06355225 59868","LAUNCH_DATE":"2021-05-04","ARG_OF_PERICENTER":"59.8408","ECCENTRICITY":"0.00016450","MEAN_MOTION_DOT":"0.00008407","MEAN_MOTION":"15.06355225"},{"CENTER_NAME":"EARTH","TLE_LINE1":"1 48399U 21038AY  22145.22053753  .00002031  00000-0  15527-3 0  9997","GP_ID":"204503393","TIME_SYSTEM":"UTC","NORAD_CAT_ID":"48399","FILE":"3463908","EPOCH":"2022-05-25T05:17:34.442592","REF_FRAME":"TEME","MEAN_ELEMENT_THEORY":"SGP4","CLASSIFICATION_TYPE":"U","MEAN_MOTION_DDOT":"0.0000000000000","APOAPSIS":"548.663","RCS_SIZE":"LARGE","EPHEMERIS_TYPE":"0","REV_AT_EPOCH":"5984","DECAY_DATE":null,"OBJECT_NAME":"STARLINK-2587","ELEMENT_SET_NO":"999","OBJECT_TYPE":"PAYLOAD","PERIAPSIS":"545.842","INCLINATION":"53.0564","MEAN_MOTION_DOT":"0.00002031","ARG_OF_PERICENTER":"36.4211","ECCENTRICITY":"0.00020370","MEAN_MOTION":"15.06387389","TLE_LINE2":"2 48399  53.0564  76.7559 0002037  36.4211 323.6916 15.06387389 59842","LAUNCH_DATE":"2021-05-04","OBJECT_ID":"2021-038AY","SITE":"AFETR","SEMIMAJOR_AXIS":"6925.387","PERIOD":"95.593","RA_OF_ASC_NODE":"76.7559","MEAN_ANOMALY":"323.6916","COUNTRY_CODE":"US","BSTAR":"0.00015527000000"},{"TIME_SYSTEM":"UTC","NORAD_CAT_ID":"48400","CENTER_NAME":"EARTH","TLE_LINE1":"1 48400U 21038AZ  22145.28319852  .00000133  00000-0  27875-4 0  9992","GP_ID":"204512516","CLASSIFICATION_TYPE":"U","MEAN_MOTION_DDOT":"0.0000000000000","REF_FRAME":"TEME","MEAN_ELEMENT_THEORY":"SGP4","REV_AT_EPOCH":"5923","RCS_SIZE":"LARGE","APOAPSIS":"548.644","EPHEMERIS_TYPE":"0","FILE":"3464222","EPOCH":"2022-05-25T06:47:48.352128","MEAN_MOTION":"15.06390489","MEAN_MOTION_DOT":"0.00000133","ARG_OF_PERICENTER":"53.0551","ECCENTRICITY":"0.00020240","LAUNCH_DATE":"2021-05-04","TLE_LINE2":"2 48400  53.0557  76.4717 0002024  53.0551 307.0623 15.06390489 59237","ELEMENT_SET_NO":"999","DECAY_DATE":null,"OBJECT_NAME":"STARLINK-2576","PERIAPSIS":"545.841","INCLINATION":"53.0557","OBJECT_TYPE":"PAYLOAD","RA_OF_ASC_NODE":"76.4717","PERIOD":"95.593","MEAN_ANOMALY":"307.0623","BSTAR":"0.00002787500000","COUNTRY_CODE":"US","SEMIMAJOR_AXIS":"6925.378","SITE":"AFETR","OBJECT_ID":"2021-038AZ"},{"OBJECT_TYPE":"PAYLOAD","PERIAPSIS":"545.919","INCLINATION":"53.0574","DECAY_DATE":null,"OBJECT_NAME":"STARLINK-2571","ELEMENT_SET_NO":"999","TLE_LINE2":"2 48401  53.0574  76.6115 0001891  46.3030 313.8116 15.06395035 58636","LAUNCH_DATE":"2021-05-04","MEAN_MOTION_DOT":"0.00000797","ECCENTRICITY":"0.00018910","ARG_OF_PERICENTER":"46.3030","MEAN_MOTION":"15.06395035","OBJECT_ID":"2021-038BA","SITE":"AFETR","SEMIMAJOR_AXIS":"6925.364","COUNTRY_CODE":"US","BSTAR":"0.00007241900000","PERIOD":"95.592","MEAN_ANOMALY":"313.8116","RA_OF_ASC_NODE":"76.6115","GP_ID":"204502393","CENTER_NAME":"EARTH","TLE_LINE1":"1 48401U 21038BA  22145.25370889  .00000797  00000-0  72419-4 0  9997","NORAD_CAT_ID":"48401","TIME_SYSTEM":"UTC","EPOCH":"2022-05-25T06:05:20.448096","FILE":"3463908","RCS_SIZE":"LARGE","APOAPSIS":"548.538","EPHEMERIS_TYPE":"0","REV_AT_EPOCH":"5863","REF_FRAME":"TEME","MEAN_ELEMENT_THEORY":"SGP4","CLASSIFICATION_TYPE":"U","MEAN_MOTION_DDOT":"0.0000000000000"},{"MEAN_MOTION":"15.06392658","MEAN_MOTION_DOT":"0.00002660","ECCENTRICITY":"0.00015220","ARG_OF_PERICENTER":"56.7264","LAUNCH_DATE":"2021-05-04","TLE_LINE2":"2 48402  53.0555  76.7870 0001522  56.7264 303.3870 15.06392658 58639","ELEMENT_SET_NO":"999","DECAY_DATE":null,"OBJECT_NAME":"STARLINK-2560","PERIAPSIS":"546.182","INCLINATION":"53.0555","OBJECT_TYPE":"PAYLOAD","PERIOD":"95.593","MEAN_ANOMALY":"303.3870","RA_OF_ASC_NODE":"76.7870","BSTAR":"0.00019741000000","COUNTRY_CODE":"US","SEMIMAJOR_AXIS":"6925.371","OBJECT_ID":"2021-038BB","SITE":"AFETR","TIME_SYSTEM":"UTC","NORAD_CAT_ID":"48402","CENTER_NAME":"EARTH","TLE_LINE1":"1 48402U 21038BB  22145.21315656  .00002660  00000-0  19741-3 0  9994","GP_ID":"204502643","CLASSIFICATION_TYPE":"U","MEAN_MOTION_DDOT":"0.0000000000000","REF_FRAME":"TEME","MEAN_ELEMENT_THEORY":"SGP4","REV_AT_EPOCH":"5863","RCS_SIZE":"LARGE","APOAPSIS":"548.290","EPHEMERIS_TYPE":"0","FILE":"3463908","EPOCH":"2022-05-25T05:06:56.726784"},{"EPOCH":"2022-05-25T20:57:02.895552","FILE":"3464394","REV_AT_EPOCH":"5873","RCS_SIZE":"LARGE","APOAPSIS":"548.540","EPHEMERIS_TYPE":"0","CLASSIFICATION_TYPE":"U","MEAN_MOTION_DDOT":"0.0000000000000","REF_FRAME":"TEME","MEAN_ELEMENT_THEORY":"SGP4","GP_ID":"204537784","CENTER_NAME":"EARTH","TLE_LINE1":"1 48403U 21038BC  22145.87295018  .00001985  00000-0  15216-3 0  9998","NORAD_CAT_ID":"48403","TIME_SYSTEM":"UTC","SEMIMAJOR_AXIS":"6925.359","SITE":"AFETR","OBJECT_ID":"2021-038BC","BSTAR":"0.00015216000000","COUNTRY_CODE":"US","MEAN_ANOMALY":"304.3071","PERIOD":"95.592","RA_OF_ASC_NODE":"73.8171","PERIAPSIS":"545.908","INCLINATION":"53.0559","OBJECT_TYPE":"PAYLOAD","ELEMENT_SET_NO":"999","DECAY_DATE":null,"OBJECT_NAME":"STARLINK-2561","LAUNCH_DATE":"2021-05-04","TLE_LINE2":"2 48403  53.0559  73.8171 0001900  55.8097 304.3071 15.06396660 58732","MEAN_MOTION":"15.06396660","MEAN_MOTION_DOT":"0.00001985","ARG_OF_PERICENTER":"55.8097","ECCENTRICITY":"0.00019000"},{"FILE":"3463908","EPOCH":"2022-05-25T06:31:53.667552","MEAN_MOTION_DDOT":"0.0000000000000","CLASSIFICATION_TYPE":"U","MEAN_ELEMENT_THEORY":"SGP4","REF_FRAME":"TEME","REV_AT_EPOCH":"5864","EPHEMERIS_TYPE":"0","APOAPSIS":"548.541","RCS_SIZE":"LARGE","TLE_LINE1":"1 48404U 21038BD  22145.27214893  .00010217  00000-0  70388-3 0  9994","CENTER_NAME":"EARTH","GP_ID":"204503144","TIME_SYSTEM":"UTC","NORAD_CAT_ID":"48404","SEMIMAJOR_AXIS":"6925.358","OBJECT_ID":"2021-038BD","SITE":"AFETR","PERIOD":"95.592","RA_OF_ASC_NODE":"76.5179","MEAN_ANOMALY":"301.1603","BSTAR":"0.00070388000000","COUNTRY_CODE":"US","ELEMENT_SET_NO":"999","OBJECT_NAME":"STARLINK-2593","DECAY_DATE":null,"INCLINATION":"53.0549","PERIAPSIS":"545.905","OBJECT_TYPE":"PAYLOAD","MEAN_MOTION":"15.06396947","ECCENTRICITY":"0.00019030","ARG_OF_PERICENTER":"58.9572","MEAN_MOTION_DOT":"0.00010217","LAUNCH_DATE":"2021-05-04","TLE_LINE2":"2 48404  53.0549  76.5179 0001903  58.9572 301.1603 15.06396947 58649"}];
